NORAD_CAT_ID,OBJECT_NAME,OBJECT_TYPE,EPOCH,MEAN_MOTION,ECCENTRICITY,INCLINATION,RA_OF_ASC_NODE,ARG_OF_PERICENTER,MEAN_ANOMALY,BSTAR,MEAN_MOTION_DOT,MEAN_MOTION_DDOT,TLE_LINE0,TLE_LINE1,TLE_LINE2,SEMIMAJOR_AXIS,PERIOD,APOGEE,PERIGEE,DECAYED
52451.0,STARLINK-3870,PAYLOAD,2023-09-14 19:39:30,15.08833464,0.0001324,53.2161,180.2177,83.0682,277.046,-0.00014633,-2.616e-05,0.0,0 STARLINK-3870,1 52451U 22049A   23257.81910543 -.00002616  00000-0 -14633-3 0  9991,2 52451  53.2161 180.2177 0001324  83.0682 277.0460 15.08833464 75202,6917.9,95.438,540.681,538.849,0.0
52451.0,STARLINK-3870,PAYLOAD,2023-09-15 02:01:03,15.08835421,0.0001329,53.2178,179.033,95.2301,264.8843,-6.4318e-05,-1.311e-05,0.0,0 STARLINK-3870,1 52451U 22049A   23258.08407039 -.00001311  00000-0 -64318-4 0  9999,2 52451  53.2178 179.0330 0001329  95.2301 264.8843 15.08835421 75401,6917.894,95.438,540.679,538.84,0.0
52451.0,STARLINK-3870,PAYLOAD,2023-09-15 03:36:26,15.08839417,0.0001263,53.2171,178.733,88.8715,271.2421,-3.9167e-05,-9.11e-06,0.0,0 STARLINK-3870,1 52451U 22049A   23258.15030737 -.00000911  00000-0 -39167-4 0  9993,2 52451  53.2171 178.7330 0001263  88.8715 271.2421 15.08839417 75250,6917.882,95.438,540.621,538.873,0.0
52451.0,STARLINK-3870,PAYLOAD,2023-09-16 01:51:49,15.08848689,0.0001252,53.2171,174.5702,95.2744,264.8391,8.3357e-05,1.039e-05,0.0,0 STARLINK-3870,1 52451U 22049A   23259.07766107  .00001039  00000-0  83357-4 0  9992,2 52451  53.2171 174.5702 0001252  95.2744 264.8391 15.08848689 75557,6917.854,95.437,540.585,538.853,0.0
52451.0,STARLINK-3870,PAYLOAD,2023-09-16 03:27:12,15.08851206,0.0001282,53.2173,174.2733,98.227,261.8868,0.00011981,1.62e-05,0.0,0 STARLINK-3870,1 52451U 22049A   23259.14389933  .00001620  00000-0  11981-3 0  9997,2 52451  53.2173 174.2733 0001282  98.2270 261.8868 15.08851206 75409,6917.846,95.437,540.598,538.824,0.0
52451.0,STARLINK-3870,PAYLOAD,2023-09-17 01:42:37,15.08837932,0.0001356,53.2174,170.1062,76.2989,283.8154,0.00020044,2.903e-05,0.0,0 STARLINK-3870,1 52451U 22049A   23260.07126965  .00002903  00000-0  20044-3 0  9990,2 52451  53.2174 170.1062 0001356  76.2989 283.8154 15.08837932 75700,6917.887,95.438,540.69,538.814,0.0
52451.0,STARLINK-3870,PAYLOAD,2023-09-17 03:18:00,15.08842865,0.0001361,53.2176,169.8085,77.4809,282.6335,0.00024932,3.683e-05,0.0,0 STARLINK-3870,1 52451U 22049A   23260.13750682  .00003683  00000-0  24932-3 0  9992,2 52451  53.2176 169.8085 0001361  77.4809 282.6335 15.08842865 75554,6917.872,95.437,540.678,538.795,0.0
52451.0,STARLINK-3870,PAYLOAD,2023-09-18 01:33:25,15.08840441,0.0001346,53.2177,165.6495,100.7861,259.3282,-1.7698e-05,-5.7e-06,0.0,0 STARLINK-3870,1 52451U 22049A   23261.06487359 -.00000570  00000-0 -17698-4 0  9999,2 52451  53.2177 165.6495 0001346 100.7861 259.3282 15.08840441 75858,6917.879,95.438,540.675,538.813,0.0
52451.0,STARLINK-3870,PAYLOAD,2023-09-18 23:48:47,15.08856211,0.0001468,53.2183,161.487,102.2206,257.8951,0.00014752,2.062e-05,0.0,0 STARLINK-3870,1 52451U 22049A   23261.99222073  .00002062  00000-0  14752-3 0  9994,2 52451  53.2183 161.4870 0001468 102.2206 257.8951 15.08856211 75994,6917.831,95.437,540.711,538.68,0.0
52451.0,STARLINK-3870,PAYLOAD,2023-09-20 02:50:20,15.08860649,0.0001201,53.2161,156.4302,88.0673,272.0456,0.00034637,5.232e-05,0.0,0 STARLINK-3870,1 52451U 22049A   23263.11829526  .00005232  00000-0  34637-3 0  9992,2 52451  53.2161 156.4302 0001201  88.0673 272.0456 15.08860649 76167,6917.817,95.436,540.513,538.851,0.0
52451.0,STARLINK-3870,PAYLOAD,2023-09-20 21:55:00,15.08824879,0.0001495,53.2157,152.8618,106.2728,253.8429,-0.00030906,-5.201e-05,0.0,0 STARLINK-3870,1 52451U 22049A   23263.91319703 -.00005201  00000-0 -30906-3 0  9994,2 52451  53.2157 152.8618 0001495 106.2728 253.8429 15.08824879 76129,6917.927,95.439,540.826,538.757,0.0
52451.0,STARLINK-3870,PAYLOAD,2023-09-20 23:30:23,15.0882395,0.0001455,53.2158,152.5646,101.5434,258.5721,-0.00031018,-5.219e-05,0.0,0 STARLINK-3870,1 52451U 22049A   23263.97943827 -.00005219  00000-0 -31018-3 0  9994,2 52451  53.2158 152.5646 0001455 101.5434 258.5721 15.08823950 76290,6917.929,95.439,540.801,538.788,0.0
52451.0,STARLINK-3870,PAYLOAD,2023-09-21 02:41:09,15.08823889,0.0001467,53.2158,151.9697,105.253,254.8624,-0.00029381,-4.959e-05,0.0,0 STARLINK-3870,1 52451U 22049A   23264.11191914 -.00004959  00000-0 -29381-3 0  9993,2 52451  53.2158 151.9697 0001467 105.2530 254.8624 15.08823889 76157,6917.93,95.439,540.809,538.78,0.0
52451.0,STARLINK-3870,PAYLOAD,2023-09-21 21:45:47,15.08845076,0.0001303,53.2169,148.4028,90.1854,269.9287,-2.1579e-05,-6.31e-06,0.0,0 STARLINK-3870,1 52451U 22049A   23264.90679455 -.00000631  00000-0 -21579-4 0  9996,2 52451  53.2169 148.4028 0001303  90.1854 269.9287 15.08845076 76275,6917.865,95.437,540.631,538.828,0.0
52451.0,STARLINK-3870,PAYLOAD,2023-09-21 23:21:10,15.08844962,0.0001369,53.2159,148.1052,93.9914,266.1234,9.039e-05,1.151e-05,0.0,0 STARLINK-3870,1 52451U 22049A   23264.97303362  .00001151  00000-0  90390-4 0  9997,2 52451  53.2159 148.1052 0001369  93.9914 266.1234 15.08844962 76441,6917.865,95.437,540.677,538.783,0.0
52451.0,STARLINK-3870,PAYLOAD,2023-09-22 15:15:02,15.08837673,0.0001433,53.2157,145.1319,99.2634,260.852,0.00037698,5.716e-05,0.0,0 STARLINK-3870,1 52451U 22049A   23265.63544075  .00005716  00000-0  37698-3 0  9991,2 52451  53.2157 145.1319 0001433  99.2634 260.8520 15.08837673 76543,6917.888,95.438,540.744,538.761,0.0
52451.0,STARLINK-3870,PAYLOAD,2023-09-22 21:36:34,15.08840224,0.000144,53.2158,143.9423,99.7227,260.3927,0.00035608,5.384e-05,0.0,0 STARLINK-3870,1 52451U 22049A   23265.90040026  .00005384  00000-0  35608-3 0  9998,2 52451  53.2158 143.9423 0001440  99.7227 260.3927 15.08840224 76426,6917.88,95.438,540.741,538.749,0.0
52451.0,STARLINK-3870,PAYLOAD,2023-09-23 00:47:20,15.08846278,0.0001425,53.2161,143.3471,97.3226,262.7928,0.00039815,6.055e-05,0.0,0 STARLINK-3870,1 52451U 22049A   23266.03287721  .00006055  00000-0  39815-3 0  9998,2 52451  53.2161 143.3471 0001425  97.3226 262.7928 15.08846278 76447,6917.861,95.437,540.712,538.74,0.0
52451.0,STARLINK-3870,PAYLOAD,2023-09-24 00:38:07,15.08847149,0.0001274,53.2158,138.8871,91.3142,268.7996,7.4317e-05,8.95e-06,0.0,0 STARLINK-3870,1 52451U 22049A   23267.02647547  .00000895  00000-0  74317-4 0  9997,2 52451  53.2158 138.8871 0001274  91.3142 268.7996 15.08847149 76752,6917.859,95.437,540.605,538.842,0.0
52451.0,STARLINK-3870,PAYLOAD,2023-09-24 19:42:45,15.08844171,0.0001253,53.2163,135.3176,84.5303,275.5832,2.9116e-05,1.76e-06,0.0,0 STARLINK-3870,1 52451U 22049A   23267.82135682  .00000176  00000-0  29116-4 0  9996,2 52451  53.2163 135.3176 0001253  84.5303 275.5832 15.08844171 76878,6917.868,95.437,540.599,538.866,0.0
52451.0,STARLINK-3870,PAYLOAD,2023-09-24 21:18:08,15.08845974,0.0001288,53.2162,135.0206,82.2877,277.8261,7.0497e-05,8.34e-06,0.0,0 STARLINK-3870,1 52451U 22049A   23267.88759618  .00000834  00000-0  70497-4 0  9992,2 52451  53.2162 135.0206 0001288  82.2877 277.8261 15.08845974 76724,6917.862,95.437,540.618,538.836,0.0
52451.0,STARLINK-3870,PAYLOAD,2023-09-25 08:25:50,15.08844325,0.0001289,53.2158,132.939,92.106,268.0079,0.00016989,2.417e-05,0.0,0 STARLINK-3870,1 52451U 22049A   23268.35127615  .00002417  00000-0  16989-3 0  9995,2 52451  53.2158 132.9390 0001289  92.1060 268.0079 15.08844325 76799,6917.867,95.437,540.624,538.84,0.0
52451.0,STARLINK-3870,PAYLOAD,2023-09-25 21:08:55,15.08847527,0.000126,53.2163,130.5572,93.2412,266.8724,0.00021615,3.155e-05,0.0,0 STARLINK-3870,1 52451U 22049A   23268.88119436  .00003155  00000-0  21615-3 0  9997,2 52451  53.2163 130.5572 0001260  93.2412 266.8724 15.08847527 77031,6917.857,95.437,540.594,538.851,0.0
52451.0,STARLINK-3870,PAYLOAD,2023-09-26 00:19:41,15.0885219,0.0001235,53.2162,129.9622,94.7726,265.3407,0.00031188,4.681e-05,0.0,0 STARLINK-3870,1 52451U 22049A   23269.01367232  .00004681  00000-0  31188-3 0  9993,2 52451  53.2162 129.9622 0001235  94.7726 265.3407 15.08852190 76891,6917.843,95.437,540.562,538.854,0.0
52451.0,STARLINK-3870,PAYLOAD,2023-09-26 19:24:19,15.08832879,0.0001665,53.2168,126.3924,90.0097,270.1086,-3.869e-05,-9.04e-06,0.0,0 STARLINK-3870,1 52451U 22049A   23269.80856468 -.00000904  00000-0 -38690-4 0  9996,2 52451  53.2168 126.3924 0001665  90.0097 270.1086 15.08832879 77171,6917.902,95.438,540.919,538.615,0.0
52451.0,STARLINK-3870,PAYLOAD,2023-09-26 20:59:43,15.08833174,0.0001682,53.2163,126.0977,73.3242,286.7935,-2.7866e-05,-7.31e-06,0.0,0 STARLINK-3870,1 52451U 22049A   23269.87480710 -.00000731  00000-0 -27866-4 0  9997,2 52451  53.2163 126.0977 0001682  73.3242 286.7935 15.08833174 77025,6917.901,95.438,540.93,538.603,0.0
52451.0,STARLINK-3870,PAYLOAD,2023-09-27 08:07:25,15.08834382,0.0001467,53.2153,124.0172,97.9394,262.1764,-6.993e-06,-3.99e-06,0.0,0 STARLINK-3870,1 52451U 22049A   23270.33848733 -.00000399  00000-0 -69930-5 0  9992,2 52451  53.2153 124.0172 0001467  97.9394 262.1764 15.08834382 77097,6917.898,95.438,540.777,538.748,0.0
52451.0,STARLINK-3870,PAYLOAD,2023-09-27 20:50:30,15.08840993,0.0001423,53.2156,121.6366,107.1464,252.9684,9.7757e-05,1.268e-05,0.0,0 STARLINK-3870,1 52451U 22049A   23270.86840612  .00001268  00000-0  97757-4 0  9999,2 52451  53.2156 121.6366 0001423 107.1464 252.9684 15.08840993 77332,6917.877,95.437,540.727,538.758,0.0
52451.0,STARLINK-3870,PAYLOAD,2023-09-28 20:41:17,15.08848857,0.0001458,53.2158,117.1766,97.5862,262.5296,0.00031034,4.656e-05,0.0,0 STARLINK-3870,1 52451U 22049A   23271.86200415  .00004656  00000-0  31034-3 0  9990,2 52451  53.2158 117.1766 0001458  97.5862 262.5296 15.08848857 77322,6917.853,95.437,540.727,538.71,0.0
52451.0,STARLINK-3870,PAYLOAD,2023-09-28 23:52:03,15.08851608,0.0001466,53.2157,116.5819,96.7758,263.3401,0.00033452,5.042e-05,0.0,0 STARLINK-3870,1 52451U 22049A   23271.99448335  .00005042  00000-0  33452-3 0  9995,2 52451  53.2157 116.5819 0001466  96.7758 263.3401 15.08851608 77502,6917.845,95.437,540.724,538.696,0.0
